GLOBALSTAR M069         
1 31573U 07020C   26194.00103056 -.00000086  00000+0  57321-4 0  9991
2 31573  52.0009 179.0623 0001705 205.4166 188.5523 12.23472161881965
GLOBALSTAR M072         
1 31574U 07020D   26194.08046381 -.00000073  00000+0  15614-3 0  9991
2 31574  51.9946  31.3105 0001656  31.2539 144.7741 11.91658704878069
GLOBALSTAR M066         
1 32265U 07048C   26193.85128615 -.00000065  00000+0  24796-3 0  9996
2 32265  51.9611 344.2390 0005630  97.0286  66.9340 12.30389166863389
GLOBALSTAR M079         
1 37188U 10054A   26194.33200231 -.00000101  00000+0  13480-4 0  9995
2 37188  52.0051  29.0813 0001113  74.3440 282.3273 12.62266410725846
GLOBALSTAR M074         
1 37189U 10054B   26193.74338155 -.00000097  00000+0  36171-4 0  9993
2 37189  52.0029  30.1345 0000869  90.1164 350.4825 12.62262035726380
GLOBALSTAR M076         
1 37190U 10054C   26193.94288925 -.00000086  00000+0  96636-4 0  9996
2 37190  52.0044  29.7329 0001098  86.3095  61.2249 12.62262283726124
GLOBALSTAR M077         
1 37191U 10054D   26194.25973846 -.00000093  00000+0 -27194-3 0  9996
2 37191  51.9951 113.1190 0002302 221.6558 307.2346 11.67547614724184
GLOBALSTAR M075         
1 37192U 10054E   26194.03344789 -.00000099  00000+0  24892-4 0  9999
2 37192  51.9950  71.4966 0000718  61.9364  77.7815 12.62267797725201
GLOBALSTAR M073         
1 37193U 10054F   26193.88084179 -.00000104  00000+0 -35579-5 0  9999
2 37193  52.0080 346.0817 0001087  93.1551  71.1005 12.62266872727179
GLOBALSTAR M083         
1 37739U 11033A   26194.25889683 -.00000084  00000+0  10803-3 0  9995
2 37739  51.9869 293.1252 0000816 103.7225 280.5961 12.62264038696240
GLOBALSTAR M088         
1 37740U 11033B   26194.32924539 -.00000092  00000+0  68133-4 0  9994
2 37740  52.0186 199.4005 0000081 149.8408 312.9857 12.62269447691796
GLOBALSTAR M091         
1 37741U 11033C   26194.27086071 -.00000114  00000+0 -59617-4 0  9992
2 37741  51.9977 162.5044 0000383  20.3238 117.6967 12.62264251692573
GLOBALSTAR M085         
1 37742U 11033D   26194.26430168 -.00000114  00000+0 -56520-4 0  9992
2 37742  52.0122 113.8395 0000746  38.3068 129.9147 12.62264316693084
GLOBALSTAR M081         
1 37743U 11033E   26194.20734021 -.00000122  00000+0 -10447-3 0  9998
2 37743  51.9951 116.4193 0000634  52.1765  96.9089 12.62265286693223
GLOBALSTAR M089         
1 37744U 11033F   26194.08869043 -.00000100  00000+0  22595-4 0  9991
2 37744  51.9933  70.9345 0000681  87.1405  63.6032 12.62267557694052
GLOBALSTAR M084         
1 38040U 11080A   26192.33406171 -.00000097  00000+0  36683-4 0  9996
2 38040  52.0028 303.7724 0000939 123.2364 270.2173 12.62267887671816
